OBJECT_NAME,OBJECT_ID,EPOCH,MEAN_MOTION,ECCENTRICITY,INCLINATION,RA_OF_ASC_NODE,ARG_OF_PERICENTER,MEAN_ANOMALY,EPHEMERIS_TYPE,CLASSIFICATION_TYPE,NORAD_CAT_ID,ELEMENT_SET_NO,REV_AT_EPOCH,BSTAR,MEAN_MOTION_DOT,MEAN_MOTION_DDOT
DONGPO 10,2022-167H,2026-05-21T14:09:54.754848,15.33844884,.0004869,97.6933,310.6181,192.3761,167.7362,0,U,54689,999,19128,.22073864E-3,.7143E-4,0
JILIN-1 GAOFEN 03D48,2022-167P,2026-05-21T14:25:22.829952,15.34583756,.00061417,97.6866,309.9989,199.8003,160.3002,0,U,54695,999,19131,.23489043E-3,.779E-4,0
STAR VIBE,2023-001A,2026-05-21T15:11:12.044256,15.41805147,.00055576,97.3179,206.0032,192.3272,167.7840,0,U,55009,999,18813,.22585714E-3,.9484E-4,0
BRO-8,2023-001C,2026-05-21T14:42:09.759744,15.47284756,.0005874,97.3223,206.4466,199.5355,160.5671,0,U,55011,999,18809,.38070935E-3,.19351E-3,0
CONNECTA T1.2,2023-001D,2026-05-21T13:36:46.755648,15.48601848,.00067115,97.3282,211.8240,177.6962,182.4321,0,U,55012,999,18842,.48409463E-3,.25809E-3,0
BIRKELAND,2023-001G,2026-05-21T15:10:56.411040,15.39553547,.00067208,97.3351,209.5433,185.6032,174.5140,0,U,55015,999,18826,.15635905E-3,.6067E-4,0
ION SCV-008,2023-001AU,2026-05-21T06:20:37.082976,15.28201391,.00164827,97.5695,237.1421,107.1735,253.1310,0,U,55051,999,18722,.173739E-3,.4714E-4,0
ION SCV-007,2023-001BD,2026-05-21T10:45:16.671168,14.77525239,.00136459,97.9020,204.9918,65.6030,294.6603,0,U,55060,999,18230,.45398973E-4,.273E-5,0
HUYGENS,2023-001CN,2026-05-21T15:11:03.787008,15.39552241,.00101397,97.3257,208.8076,168.9787,191.1683,0,U,55093,999,18828,.16295102E-3,.6332E-4,0
SHARJAHSAT-1,2023-001CZ,2026-05-21T14:50:49.219008,15.47982510,.00060464,97.3177,210.0363,181.3760,178.7475,0,U,55104,999,18838,.24685965E-3,.12813E-3,0
HORUS 1,2023-025A,2026-05-21T14:48:04.016160,15.23279795,.00011372,97.3463,216.7687,136.4780,223.6547,0,U,55690,999,18000,.17250532E-3,.402E-4,0
HORUS 2,2023-032A,2026-05-21T15:39:11.878848,15.23462471,.00031662,97.3534,217.5836,129.7716,230.3800,0,U,55844,999,17744,.16714079E-3,.3914E-4,0
GLOBAL-19,2023-041B,2026-05-20T21:29:43.194048,15.38430971,.00055578,42.0028,1.1126,163.3711,196.7312,0,U,55982,999,17772,.26008567E-3,.9832E-4,0
BRO-9,2023-054H,2026-05-21T07:30:24.580800,15.84247007,.00078922,97.2970,57.7644,117.6355,242.5717,0,U,56185,999,17481,.88193274E-3,.20298E-2,0
ION SCV-010,2023-054Q,2026-05-21T12:55:30.458208,15.25932457,.0011323,97.3809,31.3797,303.9059,56.1102,0,U,56192,999,17213,.12651032E-3,.3178E-4,0
TELEOS-2,2023-057C,2026-05-21T07:05:39.770016,14.96370491,.00009235,9.9892,39.9734,260.1874,99.8236,0,U,56310,999,16876,.17767247E-3,.2755E-4,0
SNIPE 4,2023-072B,2026-05-21T14:29:56.297184,15.41190095,.00068711,97.5277,346.7862,70.5250,289.6738,0,U,56744,999,16601,.34748231E-3,.1435E-3,0
SNIPE 2,2023-072C,2026-05-21T14:12:48.650400,15.45371056,.00063922,97.5271,349.6395,95.1605,265.0373,0,U,56745,999,16613,.38726187E-3,.18429E-3,0
2023-072G,2023-072G,2026-05-21T15:43:11.346816,15.48934078,.00054979,97.4930,348.4812,86.4988,273.6891,0,U,56749,999,16635,.36425865E-3,.19601E-3,0
GEISAT PRECURSOR,2023-084C,2026-05-21T14:41:59.754624,15.34239153,.00071602,97.6194,281.7050,85.0497,275.1563,0,U,56934,999,16345,.17151278E-3,.5604E-4,0
BLACKJACK ACES-3,2023-084U,2026-05-21T08:21:36.582048,15.18283220,.00040714,97.6178,276.3451,98.7395,261.4300,0,U,56950,999,16309,.16162584E-3,.3243E-4,0
BLACKJACK ACES-2,2023-084Z,2026-05-21T14:50:39.464448,15.18229159,.00022015,97.6177,276.7018,90.7163,269.4323,0,U,56955,999,16314,.19798178E-3,.3982E-4,0
BLACKJACK ACES-1,2023-084AA,2026-05-21T06:38:47.080320,15.18210043,.00015109,97.6167,276.1351,94.7463,265.3943,0,U,56956,999,11281,.22517124E-3,.4536E-4,0
ION SCV-011,2023-084AB,2026-05-21T11:47:04.872768,15.28549872,.00083852,98.1386,326.3032,125.4398,234.7624,0,U,56957,999,16173,.13837497E-3,.3758E-4,0
GHOST-3,2023-084AC,2026-05-20T22:31:55.650720,15.46900962,.0006658,97.6191,288.0755,43.1329,317.0441,0,U,56958,999,16380,.24567977E-3,.12277E-3,0
TOMORROW-R2,2023-084AG,2026-05-20T23:51:15.700608,15.90717869,.00028576,97.5955,301.6571,268.3732,91.7213,0,U,56962,999,16471,.5067979E-3,.15561E-2,.11079079E-4
AFR-1,2023-084AJ,2026-05-21T14:04:49.538208,15.28295451,.00119602,97.6241,277.6487,75.8665,284.3903,0,U,56964,999,16316,.12355636E-3,.3332E-4,0
METEOR-M2 3,2023-091A,2026-05-21T14:37:46.291584,14.24044226,.00029178,98.6096,197.1291,238.0330,122.0566,0,U,57166,999,15073,.11887472E-4,-.16E-6,0
UMKA 1 (RS40S),2023-091G,2026-05-21T13:48:09.578304,15.20469491,.00122431,97.5062,200.3792,205.3622,154.7013,0,U,57172,999,15996,.19601434E-3,.4217E-4,0
2023-091H,2023-091H,2026-05-21T14:25:03.609408,15.27983986,.00096933,97.5057,204.5884,197.9976,162.0922,0,U,57173,999,16024,.27484699E-3,.7438E-4,0
