DONGPO 10               
1 54689U 22167H   26141.59021707  .00007143  00000+0  22074-3 0  9997
2 54689  97.6933 310.6181 0004869 192.3761 167.7362 15.33844884191288
JILIN-1 GAOFEN 03D48    
1 54695U 22167P   26141.60095868  .00007790  00000+0  23489-3 0  9994
2 54695  97.6866 309.9989 0006141 199.8003 160.3002 15.34583756191316
STAR VIBE               
1 55009U 23001A   26141.63277829  .00009484  00000+0  22586-3 0  9993
2 55009  97.3179 206.0032 0005557 192.3272 167.7840 15.41805147188138
BRO-8                   
1 55011U 23001C   26141.61261296  .00019351  00000+0  38071-3 0  9995
2 55011  97.3223 206.4466 0005874 199.5355 160.5671 15.47284756188090
CONNECTA T1.2           
1 55012U 23001D   26141.56720782  .00025809  00000+0  48409-3 0  9991
2 55012  97.3282 211.8240 0006711 177.6962 182.4321 15.48601848188426
BIRKELAND               
1 55015U 23001G   26141.63259735  .00006067  00000+0  15636-3 0  9998
2 55015  97.3351 209.5433 0006720 185.6032 174.5140 15.39553547188266
ION SCV-008             
1 55051U 23001AU  26141.26431809  .00004714  00000+0  17374-3 0  9999
2 55051  97.5695 237.1421 0016482 107.1735 253.1310 15.28201391187221
ION SCV-007             
1 55060U 23001BD  26141.44810962  .00000273  00000+0  45399-4 0  9995
2 55060  97.9020 204.9918 0013645  65.6030 294.6603 14.77525239182306
HUYGENS                 
1 55093U 23001CN  26141.63268272  .00006332  00000+0  16295-3 0  9997
2 55093  97.3257 208.8076 0010139 168.9787 191.1683 15.39552241188281
SHARJAHSAT-1            
1 55104U 23001CZ  26141.61862522  .00012813  00000+0  24686-3 0  9990
2 55104  97.3177 210.0363 0006046 181.3760 178.7475 15.47982510188387
HORUS 1                 
1 55690U 23025A   26141.61671315  .00004020  00000+0  17251-3 0  9995
2 55690  97.3463 216.7687 0001137 136.4780 223.6547 15.23279795180005
HORUS 2                 
1 55844U 23032A   26141.65222082  .00003914  00000+0  16714-3 0  9995
2 55844  97.3534 217.5836 0003166 129.7716 230.3800 15.23462471177444
GLOBAL-19               
1 55982U 23041B   26140.89563882  .00009832  00000+0  26009-3 0  9992
2 55982  42.0028   1.1126 0005557 163.3711 196.7312 15.38430971177726
BRO-9                   
1 56185U 23054H   26141.31278450  .00202980  00000+0  88193-3 0  9995
2 56185  97.2970  57.7644 0007892 117.6355 242.5717 15.84247007174815
ION SCV-010             
1 56192U 23054Q   26141.53854697  .00003178  00000+0  12651-3 0  9994
2 56192  97.3809  31.3797 0011323 303.9059  56.1102 15.25932457172132
TELEOS-2                
1 56310U 23057C   26141.29559919  .00002755  00000+0  17767-3 0  9994
2 56310   9.9892  39.9734 0000923 260.1874  99.8236 14.96370491168760
SNIPE 4                 
1 56744U 23072B   26141.60412381  .00014350  00000+0  34748-3 0  9990
2 56744  97.5277 346.7862 0006871  70.5250 289.6738 15.41190095166014
SNIPE 2                 
1 56745U 23072C   26141.59222975  .00018429  00000+0  38726-3 0  9998
2 56745  97.5271 349.6395 0006392  95.1605 265.0373 15.45371056166135
2023-072G               
1 56749U 23072G   26141.65499244  .00019601  00000+0  36426-3 0  9992
2 56749  97.4930 348.4812 0005497  86.4988 273.6891 15.48934078166359
GEISAT PRECURSOR        
1 56934U 23084C   26141.61249716  .00005604  00000+0  17151-3 0  9996
2 56934  97.6194 281.7050 0007160  85.0497 275.1563 15.34239153163459
BLACKJACK ACES-3        
1 56950U 23084U   26141.34834007  .00003243  00000+0  16163-3 0  9996
2 56950  97.6178 276.3451 0004071  98.7395 261.4300 15.18283220163093
BLACKJACK ACES-2        
1 56955U 23084Z   26141.61851232  .00003982  00000+0  19798-3 0  9997
2 56955  97.6177 276.7018 0002201  90.7163 269.4323 15.18229159163148
BLACKJACK ACES-1        
1 56956U 23084AA  26141.27693380  .00004536  00000+0  22517-3 0  9997
2 56956  97.6167 276.1351 0001510  94.7463 265.3943 15.18210043112814
ION SCV-011             
1 56957U 23084AB  26141.49102862  .00003758  00000+0  13837-3 0  9992
2 56957  98.1386 326.3032 0008385 125.4398 234.7624 15.28549872161731
GHOST-3                 
1 56958U 23084AC  26140.93883855  .00012277  00000+0  24568-3 0  9998
2 56958  97.6191 288.0755 0006658  43.1329 317.0441 15.46900962163800
TOMORROW-R2             
1 56962U 23084AG  26140.99393172  .00155610  11079-4  50680-3 0  9993
2 56962  97.5955 301.6571 0002857 268.3732  91.7213 15.90717869164711
AFR-1                   
1 56964U 23084AJ  26141.58668447  .00003332  00000+0  12356-3 0  9999
2 56964  97.6241 277.6487 0011960  75.8665 284.3903 15.28295451163164
METEOR-M2 3             
1 57166U 23091A   26141.60956356 -.00000016  00000+0  11887-4 0  9990
2 57166  98.6096 197.1291 0002917 238.0330 122.0566 14.24044226150730
UMKA 1 (RS40S)          
1 57172U 23091G   26141.57511086  .00004217  00000+0  19601-3 0  9997
2 57172  97.5062 200.3792 0012243 205.3622 154.7013 15.20469491159960
2023-091H               
1 57173U 23091H   26141.60073622  .00007438  00000+0  27485-3 0  9998
2 57173  97.5057 204.5884 0009693 197.9976 162.0922 15.27983986160247
